[{"OBJECT_NAME":"STARLINK-2236","OBJECT_ID":"2021-041AF","EPOCH":"2026-03-09T11:48:37.768320","MEAN_MOTION":15.06399512,"ECCENTRICITY":0.0001256,"INCLINATION":53.0546,"RA_OF_ASC_NODE":97.6704,"ARG_OF_PERICENTER":103.2963,"MEAN_ANOMALY":256.8166,"EPHEMERIS_TYPE":0,"CLASSIFICATION_TYPE":"U","NORAD_CAT_ID":48582,"ELEMENT_SET_NO":999,"REV_AT_EPOCH":26566,"BSTAR":8.2603477e-5,"MEAN_MOTION_DOT":9.49e-6,"MEAN_MOTION_DDOT":0},{"OBJECT_NAME":"CZ-6A DEB","OBJECT_ID":"2024-140QV","EPOCH":"2026-03-09T14:50:36.844800","MEAN_MOTION":14.79717429,"ECCENTRICITY":0.0126492,"INCLINATION":89.1682,"RA_OF_ASC_NODE":293.0345,"ARG_OF_PERICENTER":169.4874,"MEAN_ANOMALY":190.9042,"EPHEMERIS_TYPE":0,"CLASSIFICATION_TYPE":"U","NORAD_CAT_ID":61151,"ELEMENT_SET_NO":999,"REV_AT_EPOCH":8312,"BSTAR":0.0011388,"MEAN_MOTION_DOT":9.83e-5,"MEAN_MOTION_DDOT":0}]
